STARLINK-32078          
1 60338U 24136K   26068.42737167  .00003380  00000+0  12624-3 0  9996
2 60338  53.1610  76.9367 0001397  99.4647 260.6512 15.30183824 89627
HERMES-3                
1 63835U 25052BR  26068.93751242  .00020316  00000+0  69958-3 0  9995
2 63835  97.3987 324.6131 0007993 112.9583 247.2502 15.30039785 54863
